{
  "norad_id": 66971,
  "name": "STARLINK-35678",
  "history": [
    {
      "epoch": "2026-03-28T19:44:31.475328Z",
      "apogee_km": 484.0311319900957,
      "perigee_km": 481.98143404572784,
      "latitude_deg": 3.9935834318388366e-05,
      "longitude_deg": 153.0205812195816,
      "height_km": 482.67381917616353,
      "semi_major_axis_km": 6861.143283017912,
      "eccentricity": 0.00014937,
      "inclination_deg": 43.0016,
      "raan_deg": 275.3892,
      "arg_perigee_deg": 276.1292,
      "mean_anomaly_deg": 83.939,
      "mean_motion_rev_day": 15.27594298
    },
    {
      "epoch": "2026-03-28T22:52:50.112192Z",
      "apogee_km": 484.1035012343327,
      "perigee_km": 481.88872746501966,
      "latitude_deg": 3.384473972278278e-05,
      "longitude_deg": 105.07492703881975,
      "height_km": 482.6661047151178,
      "semi_major_axis_km": 6861.133114349675,
      "eccentricity": 0.0001614,
      "inclination_deg": 43.0007,
      "raan_deg": 274.6501,
      "arg_perigee_deg": 275.5431,
      "mean_anomaly_deg": 84.5237,
      "mean_motion_rev_day": 15.27597694
    }
  ]
}